IXPE                    
1 49954U 21121A   24143.91667824  .00009562  00000+0  72029-3 0  9999
2 49954   0.2298 221.3468 0009772 263.7973 272.8190 14.97939781  5790
